      2.10          N: GNSS NAV DATA                        RINEX VERSION / TYPE
fic2rin                                 02/14/2024 00:17:57 PGM / RUN BY / DATE
                                                            END OF HEADER
1  24  2 13  1 59 44.0  .169328413904D-03  .147792889038D-11  .000000000000D+00
     .180000000000D+02  .257812500000D+02  .358586365133D-08  .268277055100D+01
     .124424695969D-05  .127110127360D-01  .127386301756D-04  .515400961113D+04
     .179984000000D+06  .260770320892D-07 -.236157602160D+01 -.180676579475D-06
     .990720980420D+00  .148281250000D+03  .998359667150D+00 -.736923552967D-08
     .129648257513D-09  .100000000000D+01  .230100000000D+04  .000000000000D+00
     .240000000000D+01  .630000000000D+02  .512227416039D-08  .180000000000D+02
     .172800000000D+06  .400000000000D+01
8  24  2 13  1 59 44.0 -.166742596775D-03 -.181898940355D-11  .000000000000D+00
     .200000000000D+01 -.612812500000D+02  .493627704432D-08 -.129529921082D+01
    -.335648655891D-05  .934157252777D-02  .567361712456D-05  .515358307648D+04
     .179984000000D+06  .128522515297D-06  .282185678957D+01 -.171363353729D-06
     .954898884309D+00  .262625000000D+03  .318809803228D+00 -.838999233400D-08
    -.323227749447D-09  .100000000000D+01  .230100000000D+04  .000000000000D+00
     .240000000000D+01  .000000000000D+00  .512227416039D-08  .200000000000D+01
     .172800000000D+06  .400000000000D+01
12 24  2 13 12  0  0.0 -.477565918118D-03 -.375166564481D-11  .000000000000D+00
     .900000000000D+02  .715937500000D+02  .485698802733D-08  .417692811794D+00
     .366009771824D-05  .897418730892D-02  .568851828575D-05  .515370410538D+04
     .216000000000D+06 -.121071934700D-06  .187533913995D+01 -.521540641785D-07
     .962784006904D+00  .270656250000D+03  .141505442795D+01 -.854571310611D-08
     .217509060125D-09  .100000000000D+01  .230100000000D+04  .000000000000D+00
     .240000000000D+01  .000000000000D+00 -.125728547573D-07  .900000000000D+02
     .208800000000D+06  .400000000000D+01
32 24  2 13 12  0  0.0 -.611387658864D-03 -.204636307899D-11  .000000000000D+00
     .580000000000D+02 -.743437500000D+02  .486091676241D-08 -.156283768525D+01
    -.376068055630D-05  .754769833293D-02  .578351318836D-05  .515363127899D+04
     .216000000000D+06  .178813934326D-06 -.297903169274D+00  .149011611938D-07
     .961578852065D+00  .266500000000D+03 -.217945906738D+01 -.827427322812D-08
    -.278940190407D-09  .100000000000D+01  .230100000000D+04  .000000000000D+00
     .240000000000D+01  .000000000000D+00  .465661287308D-09  .580000000000D+02
     .208800000000D+06  .400000000000D+01
29 24  2 13 12  0  0.0 -.607064459473D-03  .682121026330D-12  .000000000000D+00
     .400000000000D+02 -.587500000000D+02  .447304346307D-08 -.230326793981D+01
    -.306591391563D-05  .259976682719D-02  .635907053947D-05  .515364079857D+04
     .216000000000D+06 -.931322574615D-08  .292933807281D+01  .670552253723D-07
     .973058376084D+00  .263781250000D+03  .250516531805D+01 -.820105589261D-08
    -.483591572101D-09  .100000000000D+01  .230100000000D+04  .000000000000D+00
     .240000000000D+01  .000000000000D+00 -.102445483208D-07  .400000000000D+02
     .208800000000D+06  .400000000000D+01
25 24  2 13 12  0  0.0  .488452147692D-03  .113686837722D-11  .000000000000D+00
     .340000000000D+02  .801250000000D+02  .512521348571D-08  .310387393247D+00
     .423006713390D-05  .118163113948D-01  .626966357231D-05  .515361184311D+04
     .216000000000D+06 -.121071934700D-06  .178992409316D+01  .838190317154D-07
     .950651057358D+00  .252562500000D+03  .107616165754D+01 -.870714840197D-08
     .249296098469D-09  .100000000000D+01  .230100000000D+04  .000000000000D+00
     .240000000000D+01  .000000000000D+00  .558793544769D-08  .340000000000D+02
     .208800000000D+06  .400000000000D+01
31 24  2 13 12  0  0.0 -.227752141654D-03 -.113686837722D-12  .000000000000D+00
     .840000000000D+02  .687500000000D+00  .458269088747D-08  .272278086161D+00
     .266358256340D-06  .105730756186D-01  .123828649521D-04  .515368452835D+04
     .216000000000D+06  .558793544769D-08  .780684100066D+00  .199303030968D-06
     .954466012701D+00  .137750000000D+03  .658475793143D+00 -.811640950961D-08
    -.110718897601D-10  .100000000000D+01  .230100000000D+04  .000000000000D+00
     .240000000000D+01  .000000000000D+00 -.135041773319D-07  .840000000000D+02
     .208800000000D+06  .400000000000D+01
24 24  2 13 12  0  0.0 -.431014224887D-03 -.625277607469D-11  .000000000000D+00
     .870000000000D+02 -.146562500000D+02  .493199115151D-08  .217181894553D+01
    -.916421413422D-06  .150965347420D-01  .140275806189D-04  .515373494339D+04
     .216000000000D+06 -.111758708954D-06  .664397533384D+00 -.365078449249D-06
     .934202370741D+00  .913125000000D+02  .967645645022D+00 -.804569227824D-08
    -.810748056625D-10  .100000000000D+01  .230100000000D+04  .000000000000D+00
     .240000000000D+01  .000000000000D+00  .232830643654D-08  .870000000000D+02
     .208800000000D+06  .400000000000D+01
16 24  2 13 12  0  0.0 -.363581813872D-03  .829913915368D-11  .000000000000D+00
     .920000000000D+02  .621250000000D+02  .472948271622D-08 -.133637305118D+01
     .339001417160D-05  .139964290429D-01  .467523932457D-05  .515372966003D+04
     .216000000000D+06  .283122062683D-06  .189332835099D+01  .409781932831D-07
     .962330939712D+00  .287718750000D+03  .825733809436D+00 -.831070331701D-08
     .230366738556D-09  .100000000000D+01  .230100000000D+04  .000000000000D+00
     .240000000000D+01  .000000000000D+00 -.102445483208D-07  .920000000000D+02
     .208800000000D+06  .400000000000D+01
30 24  2 13 12  0  0.0 -.433131121099D-03  .488853402203D-11  .000000000000D+00
     .810000000000D+02  .188437500000D+02  .500056543648D-08  .101684014217D+01
     .118464231491D-05  .679499132093D-02  .127498060465D-04  .515369868088D+04
     .216000000000D+06 -.372529029846D-08  .761779744533D+00  .707805156708D-07
     .935606744302D+00  .121843750000D+03 -.253389680092D+01 -.830606026646D-08
    -.678599694973D-10  .100000000000D+01  .230100000000D+04  .000000000000D+00
     .240000000000D+01  .000000000000D+00  .372529029846D-08  .810000000000D+02
     .208800000000D+06  .400000000000D+01
22 24  2 13 12  0  0.0  .319238752127D-04 -.625277607469D-11  .000000000000D+00
     .600000000000D+02  .701875000000D+02  .485698802733D-08 -.175964310502D+01
     .375509262085D-05  .145271512447D-01  .473856925964D-05  .515371522141D+04
     .216000000000D+06 -.171363353729D-06  .189663219640D+01  .284984707832D-06
     .961627197118D+00  .291906250000D+03 -.114324426346D+01 -.847535303247D-08
     .176793078427D-09  .100000000000D+01  .230100000000D+04  .000000000000D+00
     .240000000000D+01  .000000000000D+00 -.111758708954D-07  .600000000000D+02
     .208800000000D+06  .400000000000D+01
27 24  2 13 12  0  0.0 -.365544110537D-05 -.341060513165D-11  .000000000000D+00
     .122000000000D+03 -.623437500000D+02  .454626079858D-08 -.221292266305D+01
    -.328384339809D-05  .123749466147D-01  .567547976971D-05  .515367538643D+04
     .216000000000D+06  .121071934700D-06  .284710932450D+01 -.122934579849D-06
     .963882248765D+00  .270343750000D+03  .758388719443D+00 -.813926760459D-08
    -.297869550320D-09  .100000000000D+01  .230100000000D+04  .000000000000D+00
     .240000000000D+01  .000000000000D+00  .186264514923D-08  .122000000000D+03
     .208800000000D+06  .400000000000D+01
21 24  2 13 12  0  0.0  .135087408125D-03 -.136424205266D-11  .000000000000D+00
     .102000000000D+03  .871875000000D+01  .396337937637D-08 -.237233610592D+01
     .730156898499D-06  .253023067489D-01  .122915953398D-04  .515373310471D+04
     .216000000000D+06 -.340864062309D-06 -.247278294904D+01  .400468707085D-06
     .962006599071D+00  .144968750000D+03 -.629615877777D+00 -.765174729742D-08
     .342871424828D-10  .100000000000D+01  .230100000000D+04  .000000000000D+00
     .340000000000D+01  .000000000000D+00 -.102445483208D-07  .102000000000D+03
     .208800000000D+06  .400000000000D+01
26 24  2 13 12  0  0.0  .190661754459D-03 -.397903932026D-11  .000000000000D+00
     .880000000000D+02  .778125000000D+02  .549201447873D-08 -.498128521395D+00
     .410340726376D-05  .880672526546D-02  .596232712269D-05  .515358433914D+04
     .216000000000D+06  .800937414169D-07  .172934192569D+01  .987201929092D-07
     .931426871359D+00  .247562500000D+03  .531217250165D+00 -.877965142201D-08
     .244653047924D-09  .100000000000D+01  .230100000000D+04  .000000000000D+00
     .340000000000D+01  .000000000000D+00  .698491930962D-08  .880000000000D+02
     .208800000000D+06  .400000000000D+01
20 24  2 13 12  0  0.0  .387662090361D-03 -.147792889038D-11  .000000000000D+00
     .900000000000D+02  .610000000000D+02  .487091717897D-08  .251435220660D+01
     .316649675369D-05  .387234368827D-02  .693276524544D-05  .515371595955D+04
     .216000000000D+06 -.316649675369D-07 -.151016619902D+01 -.409781932831D-07
     .952041073841D+00  .238968750000D+03 -.263573620746D+01 -.838284917932D-08
     .551451541599D-09  .100000000000D+01  .230100000000D+04  .000000000000D+00
     .340000000000D+01  .000000000000D+00 -.838190317154D-08  .900000000000D+02
     .208800000000D+06  .400000000000D+01
19 24  2 13 12  0  0.0  .440080184489D-03  .522959453519D-11  .000000000000D+00
     .550000000000D+02 -.606875000000D+02  .449411576939D-08 -.237722862477D+00
    -.323913991451D-05  .947340170387D-02  .740028917789D-05  .515368190193D+04
     .216000000000D+06  .204890966415D-07  .295896152170D+01 -.184401869774D-06
     .969854427496D+00  .246250000000D+03  .248115178989D+01 -.828963101069D-08
    -.508592613495D-09  .100000000000D+01  .230100000000D+04  .000000000000D+00
     .240000000000D+01  .000000000000D+00 -.153668224812D-07  .550000000000D+02
     .208800000000D+06  .400000000000D+01
